start=new Date('2022-09-17T00:00:00.000Z').valueOf();
sats=[{"GP_ID":"212717353","LAUNCH_DATE":"2021-05-04","REF_FRAME":"TEME","BSTAR":"0.00017388000000","EPHEMERIS_TYPE":"0","INCLINATION":"53.0535","COUNTRY_CODE":"US","FILE":"3575604","MEAN_MOTION":"15.06399681","EPOCH":"2022-09-16T12:19:01.585056","APOAPSIS":"548.275","MEAN_MOTION_DOT":"0.00002309","CLASSIFICATION_TYPE":"U","SITE":"AFETR","TLE_LINE2":"2 48382  53.0535 293.6776 0001531  60.2832 299.8309 15.06399681 75728","CENTER_NAME":"EARTH","OBJECT_NAME":"STARLINK-2585","ELEMENT_SET_NO":"999","RCS_SIZE":"LARGE","MEAN_MOTION_DDOT":"0.0000000000000","REV_AT_EPOCH":"7572","PERIOD":"95.592","MEAN_ANOMALY":"299.8309","NORAD_CAT_ID":"48382","OBJECT_ID":"2021-038AF","TIME_SYSTEM":"UTC","RA_OF_ASC_NODE":"293.6776","PERIAPSIS":"546.154","TLE_LINE1":"1 48382U 21038AF  22259.51321279  .00002309  00000-0  17388-3 0  9993","MEAN_ELEMENT_THEORY":"SGP4","ARG_OF_PERICENTER":"60.2832","ECCENTRICITY":"0.00015310","DECAY_DATE":null,"OBJECT_TYPE":"PAYLOAD","SEMIMAJOR_AXIS":"6925.350"},{"OBJECT_TYPE":"PAYLOAD","DECAY_DATE":null,"SEMIMAJOR_AXIS":"6925.356","ARG_OF_PERICENTER":"72.0233","ECCENTRICITY":"0.00015490","MEAN_ELEMENT_THEORY":"SGP4","TLE_LINE1":"1 48383U 21038AG  22259.50952834  .00000350  00000-0  42399-4 0  9995","PERIAPSIS":"546.148","RA_OF_ASC_NODE":"293.6936","TIME_SYSTEM":"UTC","OBJECT_ID":"2021-038AG","NORAD_CAT_ID":"48383","MEAN_ANOMALY":"288.0925","PERIOD":"95.592","MEAN_MOTION_DDOT":"0.0000000000000","REV_AT_EPOCH":"7694","RCS_SIZE":"LARGE","ELEMENT_SET_NO":"999","TLE_LINE2":"2 48383  53.0535 293.6936 0001549  72.0233 288.0925 15.06397547 76940","SITE":"AFETR","OBJECT_NAME":"STARLINK-2599","CENTER_NAME":"EARTH","CLASSIFICATION_TYPE":"U","MEAN_MOTION_DOT":"0.00000350","APOAPSIS":"548.294","EPOCH":"2022-09-16T12:13:43.248576","MEAN_MOTION":"15.06397547","FILE":"3575604","COUNTRY_CODE":"US","INCLINATION":"53.0535","EPHEMERIS_TYPE":"0","BSTAR":"0.00004239900000","LAUNCH_DATE":"2021-05-04","REF_FRAME":"TEME","GP_ID":"212718097"},{"MEAN_MOTION":"15.06399683","FILE":"3575604","EPOCH":"2022-09-16T08:57:19.903392","COUNTRY_CODE":"US","EPHEMERIS_TYPE":"0","BSTAR":"0.00002039100000","INCLINATION":"53.0551","GP_ID":"212718342","LAUNCH_DATE":"2021-05-04","REF_FRAME":"TEME","TLE_LINE2":"2 48384  53.0551 294.3018 0001425  76.2967 283.8181 15.06399683 76929","SITE":"AFETR","CENTER_NAME":"EARTH","OBJECT_NAME":"STARLINK-2601","CLASSIFICATION_TYPE":"U","MEAN_MOTION_DOT":"0.00000022","APOAPSIS":"548.201","NORAD_CAT_ID":"48384","PERIOD":"95.592","MEAN_ANOMALY":"283.8181","OBJECT_ID":"2021-038AH","MEAN_MOTION_DDOT":"0.0000000000000","REV_AT_EPOCH":"7692","ELEMENT_SET_NO":"999","RCS_SIZE":"LARGE","ECCENTRICITY":"0.00014250","ARG_OF_PERICENTER":"76.2967","SEMIMAJOR_AXIS":"6925.350","DECAY_DATE":null,"OBJECT_TYPE":"PAYLOAD","MEAN_ELEMENT_THEORY":"SGP4","TLE_LINE1":"1 48384U 21038AH  22259.37314703  .00000022  00000-0  20391-4 0  9992","TIME_SYSTEM":"UTC","RA_OF_ASC_NODE":"294.3018","PERIAPSIS":"546.228"},{"INCLINATION":"53.0532","BSTAR":"0.00032473000000","EPHEMERIS_TYPE":"0","REF_FRAME":"TEME","LAUNCH_DATE":"2021-05-04","GP_ID":"212717103","EPOCH":"2022-09-16T12:03:06.819264","FILE":"3575604","MEAN_MOTION":"15.06404363","COUNTRY_CODE":"US","MEAN_MOTION_DOT":"0.00004559","APOAPSIS":"548.323","TLE_LINE2":"2 48385  53.0532 293.7224 0001621  72.8470 287.2696 15.06404363 76943","SITE":"AFETR","CENTER_NAME":"EARTH","OBJECT_NAME":"STARLINK-2598","CLASSIFICATION_TYPE":"U","RCS_SIZE":"LARGE","ELEMENT_SET_NO":"999","OBJECT_ID":"2021-038AJ","PERIOD":"95.592","MEAN_ANOMALY":"287.2696","NORAD_CAT_ID":"48385","REV_AT_EPOCH":"7694","MEAN_MOTION_DDOT":"0.0000000000000","TLE_LINE1":"1 48385U 21038AJ  22259.50216226  .00004559  00000-0  32473-3 0  9991","PERIAPSIS":"546.078","RA_OF_ASC_NODE":"293.7224","TIME_SYSTEM":"UTC","OBJECT_TYPE":"PAYLOAD","DECAY_DATE":null,"SEMIMAJOR_AXIS":"6925.335","ARG_OF_PERICENTER":"72.8470","ECCENTRICITY":"0.00016210","MEAN_ELEMENT_THEORY":"SGP4"},{"OBJECT_ID":"2021-038AK","NORAD_CAT_ID":"48386","MEAN_ANOMALY":"289.6210","PERIOD":"95.593","REV_AT_EPOCH":"7576","MEAN_MOTION_DDOT":"0.0000000000000","RCS_SIZE":"LARGE","ELEMENT_SET_NO":"999","DECAY_DATE":null,"OBJECT_TYPE":"PAYLOAD","SEMIMAJOR_AXIS":"6925.367","ARG_OF_PERICENTER":"70.4918","ECCENTRICITY":"0.00012880","MEAN_ELEMENT_THEORY":"SGP4","TLE_LINE1":"1 48386U 21038AK  22259.35704540  .00005546  00000-0  39099-3 0  9994","PERIAPSIS":"546.340","RA_OF_ASC_NODE":"289.3833","TIME_SYSTEM":"UTC","EPOCH":"2022-09-16T08:34:08.722560","MEAN_MOTION":"15.06393826","FILE":"3575604","COUNTRY_CODE":"US","INCLINATION":"53.0543","EPHEMERIS_TYPE":"0","BSTAR":"0.00039099000000","LAUNCH_DATE":"2021-05-04","REF_FRAME":"TEME","GP_ID":"212717853","CENTER_NAME":"EARTH","TLE_LINE2":"2 48386  53.0543 289.3833 0001288  70.4918 289.6210 15.06393826 75761","SITE":"AFETR","OBJECT_NAME":"STARLINK-2606","CLASSIFICATION_TYPE":"U","MEAN_MOTION_DOT":"0.00005546","APOAPSIS":"548.124"},{"MEAN_MOTION_DOT":"0.00000184","APOAPSIS":"548.270","SITE":"AFETR","TLE_LINE2":"2 48387  53.0554 288.3181 0001481  68.4152 291.6995 15.06389958 75800","CENTER_NAME":"EARTH","OBJECT_NAME":"STARLINK-2600","CLASSIFICATION_TYPE":"U","EPHEMERIS_TYPE":"0","BSTAR":"0.00003128200000","INCLINATION":"53.0554","GP_ID":"212746905","REF_FRAME":"TEME","LAUNCH_DATE":"2021-05-04","MEAN_MOTION":"15.06389958","FILE":"3575787","EPOCH":"2022-09-16T14:03:12.281184","COUNTRY_CODE":"US","TLE_LINE1":"1 48387U 21038AL  22259.58555881  .00000184  00000-0  31282-4 0  9992","TIME_SYSTEM":"UTC","RA_OF_ASC_NODE":"288.3181","PERIAPSIS":"546.219","ARG_OF_PERICENTER":"68.4152","ECCENTRICITY":"0.00014810","DECAY_DATE":null,"OBJECT_TYPE":"PAYLOAD","SEMIMAJOR_AXIS":"6925.379","MEAN_ELEMENT_THEORY":"SGP4","ELEMENT_SET_NO":"999","RCS_SIZE":"MEDIUM","NORAD_CAT_ID":"48387","MEAN_ANOMALY":"291.6995","PERIOD":"95.593","OBJECT_ID":"2021-038AL","REV_AT_EPOCH":"7580","MEAN_MOTION_DDOT":"0.0000000000000"},{"TLE_LINE2":"2 48388  53.0538 288.9577 0001385  80.2332 279.8813 15.06397198 75782","CENTER_NAME":"EARTH","SITE":"AFETR","OBJECT_NAME":"STARLINK-2594","CLASSIFICATION_TYPE":"U","MEAN_MOTION_DOT":"0.00002432","APOAPSIS":"548.181","EPOCH":"2022-09-16T10:46:48.785664","FILE":"3575604","MEAN_MOTION":"15.06397198","COUNTRY_CODE":"US","INCLINATION":"53.0538","BSTAR":"0.00018211000000","EPHEMERIS_TYPE":"0","LAUNCH_DATE":"2021-05-04","REF_FRAME":"TEME","GP_ID":"212718842","OBJECT_TYPE":"PAYLOAD","DECAY_DATE":null,"SEMIMAJOR_AXIS":"6925.357","ECCENTRICITY":"0.00013850","ARG_OF_PERICENTER":"80.2332","MEAN_ELEMENT_THEORY":"SGP4","TLE_LINE1":"1 48388U 21038AM  22259.44917576  .00002432  00000-0  18211-3 0  9995","PERIAPSIS":"546.263","RA_OF_ASC_NODE":"288.9577","TIME_SYSTEM":"UTC","OBJECT_ID":"2021-038AM","PERIOD":"95.592","MEAN_ANOMALY":"279.8813","NORAD_CAT_ID":"48388","MEAN_MOTION_DDOT":"0.0000000000000","REV_AT_EPOCH":"7578","RCS_SIZE":"LARGE","ELEMENT_SET_NO":"999"},{"TLE_LINE1":"1 48389U 21038AN  22259.76752283  .00003177  00000-0  23204-3 0  9998","PERIAPSIS":"546.265","TIME_SYSTEM":"UTC","RA_OF_ASC_NODE":"282.5216","DECAY_DATE":null,"OBJECT_TYPE":"PAYLOAD","SEMIMAJOR_AXIS":"6925.338","ARG_OF_PERICENTER":"71.8592","ECCENTRICITY":"0.00013550","MEAN_ELEMENT_THEORY":"SGP4","RCS_SIZE":"LARGE","ELEMENT_SET_NO":"999","OBJECT_ID":"2021-038AN","MEAN_ANOMALY":"288.2544","PERIOD":"95.592","NORAD_CAT_ID":"48389","REV_AT_EPOCH":"7589","MEAN_MOTION_DDOT":"0.0000000000000","MEAN_MOTION_DOT":"0.00003177","APOAPSIS":"548.141","TLE_LINE2":"2 48389  53.0540 282.5216 0001355  71.8592 288.2544 15.06403453 75896","SITE":"AFETR","CENTER_NAME":"EARTH","OBJECT_NAME":"STARLINK-1904","CLASSIFICATION_TYPE":"U","INCLINATION":"53.0540","BSTAR":"0.00023204000000","EPHEMERIS_TYPE":"0","LAUNCH_DATE":"2021-05-04","REF_FRAME":"TEME","GP_ID":"212748406","EPOCH":"2022-09-16T18:25:13.972512","FILE":"3575787","MEAN_MOTION":"15.06403453","COUNTRY_CODE":"US"},{"MEAN_MOTION_DOT":"0.00000337","APOAPSIS":"548.286","TLE_LINE2":"2 48390  53.0546 282.5396 0001505  69.0330 291.0820 15.06390129 77110","SITE":"AFETR","CENTER_NAME":"EARTH","OBJECT_NAME":"STARLINK-2586","CLASSIFICATION_TYPE":"U","INCLINATION":"53.0546","BSTAR":"0.00004153300000","EPHEMERIS_TYPE":"0","LAUNCH_DATE":"2021-05-04","REF_FRAME":"TEME","GP_ID":"212748657","EPOCH":"2022-09-16T18:21:17.423136","FILE":"3575787","MEAN_MOTION":"15.06390129","COUNTRY_CODE":"US","TLE_LINE1":"1 48390U 21038AP  22259.76478499  .00000337  00000-0  41533-4 0  9995","PERIAPSIS":"546.202","RA_OF_ASC_NODE":"282.5396","TIME_SYSTEM":"UTC","DECAY_DATE":null,"SEMIMAJOR_AXIS":"6925.379","OBJECT_TYPE":"PAYLOAD","ECCENTRICITY":"0.00015050","ARG_OF_PERICENTER":"69.0330","MEAN_ELEMENT_THEORY":"SGP4","RCS_SIZE":"LARGE","ELEMENT_SET_NO":"999","OBJECT_ID":"2021-038AP","MEAN_ANOMALY":"291.0820","PERIOD":"95.593","NORAD_CAT_ID":"48390","REV_AT_EPOCH":"7711","MEAN_MOTION_DDOT":"0.0000000000000"},{"RA_OF_ASC_NODE":"284.3505","TIME_SYSTEM":"UTC","PERIAPSIS":"546.146","TLE_LINE1":"1 48391U 21038AQ  22259.36301563  .00002567  00000-0  19113-3 0  9994","MEAN_ELEMENT_THEORY":"SGP4","ARG_OF_PERICENTER":"58.3943","ECCENTRICITY":"0.00015390","OBJECT_TYPE":"PAYLOAD","DECAY_DATE":null,"SEMIMAJOR_AXIS":"6925.346","ELEMENT_SET_NO":"999","RCS_SIZE":"LARGE","MEAN_MOTION_DDOT":"0.0000000000000","REV_AT_EPOCH":"7705","MEAN_ANOMALY":"301.7196","PERIOD":"95.592","NORAD_CAT_ID":"48391","OBJECT_ID":"2021-038AQ","APOAPSIS":"548.277","MEAN_MOTION_DOT":"0.00002567","CLASSIFICATION_TYPE":"U","SITE":"AFETR","TLE_LINE2":"2 48391  53.0538 284.3505 0001539  58.3943 301.7196 15.06400721 77050","CENTER_NAME":"EARTH","OBJECT_NAME":"STARLINK-2607","GP_ID":"212718098","REF_FRAME":"TEME","LAUNCH_DATE":"2021-05-04","BSTAR":"0.00019113000000","EPHEMERIS_TYPE":"0","INCLINATION":"53.0538","COUNTRY_CODE":"US","FILE":"3575604","MEAN_MOTION":"15.06400721","EPOCH":"2022-09-16T08:42:44.550432"}];
